[{"OBJECT_NAME":"STARLINK-3227","OBJECT_ID":"2021-115AT","EPOCH":"2026-03-09T12:11:07.769184","MEAN_MOTION":15.08839343,"ECCENTRICITY":0.00017739,"INCLINATION":53.218,"RA_OF_ASC_NODE":139.9459,"ARG_OF_PERICENTER":79.5782,"MEAN_ANOMALY":280.541,"EPHEMERIS_TYPE":0,"CLASSIFICATION_TYPE":"U","NORAD_CAT_ID":49765,"ELEMENT_SET_NO":999,"REV_AT_EPOCH":23565,"BSTAR":-1.286614e-5,"MEAN_MOTION_DOT":-4.93e-6,"MEAN_MOTION_DDOT":0},{"OBJECT_NAME":"FENGYUN 1C DEB","OBJECT_ID":"1999-025CYT","EPOCH":"2026-03-07T13:55:54.215040","MEAN_MOTION":14.53584795,"ECCENTRICITY":0.0265155,"INCLINATION":98.2146,"RA_OF_ASC_NODE":114.8135,"ARG_OF_PERICENTER":36.9946,"MEAN_ANOMALY":324.9212,"EPHEMERIS_TYPE":0,"CLASSIFICATION_TYPE":"U","NORAD_CAT_ID":32350,"ELEMENT_SET_NO":999,"REV_AT_EPOCH":98759,"BSTAR":0.0011205,"MEAN_MOTION_DOT":7.432e-5,"MEAN_MOTION_DDOT":0}]
